OBJECT_NAME,OBJECT_ID,EPOCH,MEAN_MOTION,ECCENTRICITY,INCLINATION,RA_OF_ASC_NODE,ARG_OF_PERICENTER,MEAN_ANOMALY,EPHEMERIS_TYPE,CLASSIFICATION_TYPE,NORAD_CAT_ID,ELEMENT_SET_NO,REV_AT_EPOCH,BSTAR,MEAN_MOTION_DOT,MEAN_MOTION_DDOT
ATLAS CENTAUR 2,1963-047A,2026-06-05T01:19:35.579424,14.12488877,.05460801,30.3528,67.2380,130.5036,234.4465,0,U,694,999,14398,.27864807E-3,.2376E-4,0
THOR AGENA D R/B,1964-002A,2026-06-05T12:07:26.482368,14.34060775,.00329118,99.1158,174.6068,4.8526,355.2970,0,U,733,999,25088,.92299843E-4,.211E-5,0
SL-3 R/B,1964-053B,2026-06-05T20:00:05.366880,14.61421466,.0081204,65.0772,72.8026,264.6491,94.5340,0,U,877,999,27967,.59738E-4,.184E-5,0
SL-8 R/B,1967-045B,2026-06-05T11:02:46.804416,14.45677165,.00639119,74.0096,184.1612,171.5067,188.7190,0,U,2802,999,10170,.83495246E-4,.275E-5,0
SL-8 R/B,1968-040B,2026-06-05T16:10:12.813888,15.03755117,.00259429,74.0294,133.8359,288.9276,70.9101,0,U,3230,999,10323,.25260833E-3,.3451E-4,0
OAO 2,1968-110A,2026-06-05T14:28:13.461312,14.47347170,.00056582,34.9920,134.3607,188.4167,171.6430,0,U,3597,999,3184,.53235921E-4,.179E-5,0
ISIS 1,1969-009A,2026-06-05T05:50:04.982208,11.30432109,.170595,88.4418,145.7124,272.3696,68.3981,0,U,3669,999,35842,.51656E-4,.69E-6,0
SERT 2,1970-009A,2026-06-05T20:11:57.720192,13.58738382,.0004169,99.2838,95.1637,308.5934,114.6688,0,U,4327,999,79186,.60164E-4,.3E-7,0
SL-3 R/B,1971-028B,2026-06-05T21:30:17.983008,15.68659651,.0013685,81.2333,302.4615,322.5828,37.4475,0,U,5118,999,247,.53631E-3,.61586E-3,0
ASTEX 1,1971-089A,2026-06-05T11:38:53.278368,14.50842398,.00169873,92.7003,180.0871,141.1651,219.0779,0,U,5560,999,87503,.1056984E-3,.416E-5,0
SL-8 R/B,1971-119B,2026-06-05T19:53:08.808288,14.39426649,.054382,73.8875,10.7533,319.0091,37.1347,0,U,5730,999,66816,.28539E-3,.5553E-4,0
OAO 3 (COPERNICUS),1972-065A,2026-06-05T16:47:35.613600,14.60053714,.00064499,35.0040,155.8601,165.7873,1.4468,0,U,6153,999,85906,.58936832E-4,.267E-5,0
ATLAS CENTAUR R/B,1972-065B,2026-06-05T15:47:45.881952,14.77896585,.00331275,34.9999,150.1302,29.9599,330.2989,0,U,6155,999,85428,.15235243E-3,.11E-4,0
SL-8 R/B,1975-112B,2026-06-05T11:51:42.601248,14.38240702,.00167743,74.0604,217.3847,285.6775,74.2529,0,U,8459,999,64449,.68800599E-4,.183E-5,0
SL-3 R/B,1977-057B,2026-06-05T21:40:26.747040,15.47641590,.0006069,97.5842,332.8997,334.3301,25.7647,0,U,10114,999,68196,.29426E-3,.1511E-3,0
SEASAT 1,1978-064A,2026-06-05T16:31:21.654048,14.46234160,.00021422,108.0162,310.1521,241.4791,118.6139,0,U,10967,999,51923,.1310865E-3,.332E-5,0
SL-14 R/B,1979-011B,2026-06-05T07:19:08.615712,14.92003103,.00173235,82.5244,13.4314,121.9720,238.3187,0,U,11267,999,54184,.51888165E-4,.553E-5,0
SL-8 R/B,1979-089B,2026-06-05T19:55:49.503648,14.42398829,.0014822,74.0694,287.8803,76.2212,284.0593,0,U,11574,999,44881,.90258E-4,.273E-5,0
SL-14 R/B,1980-005B,2026-06-05T10:37:34.363776,14.91019072,.0014521,82.5150,223.9800,226.7686,133.2322,0,U,11672,999,48956,.49302879E-4,.513E-5,0
SL-8 R/B,1981-003B,2026-06-05T09:18:27.040608,15.13866804,.02505605,82.9376,208.7324,232.5911,125.2284,0,U,12139,999,32793,.33704417E-3,.136E-3,0
SL-3 R/B,1981-046B,2026-06-05T21:55:25.161024,15.43961901,.0019388,81.2299,183.6474,74.7396,285.5989,0,U,12465,999,45203,.29865E-3,.13724E-3,0
SL-3 R/B,1981-103B,2026-06-05T21:06:15.869376,15.22187860,.0012656,81.1580,109.9163,356.3410,3.7727,0,U,12904,999,98664,.27366E-3,.632E-4,0
SL-3 R/B,1982-013B,2026-06-05T23:40:00.062112,15.22717131,.0020746,81.1745,57.2040,240.1545,119.7625,0,U,13068,999,41778,.19396E-3,.4573E-4,0
SL-3 R/B,1982-079B,2026-06-05T21:38:21.861024,15.25692813,.0022842,81.1460,88.8341,224.5863,135.3534,0,U,13403,999,39114,.23786E-3,.6129E-4,0
SL-14 R/B,1982-092B,2026-06-05T11:55:26.359104,14.86739214,.0020695,82.5687,59.2413,14.3734,157.6936,0,U,13553,999,34197,.54363422E-4,.51E-5,0
SL-3 R/B,1983-010B,2026-06-04T17:18:48.107232,15.48882753,.0016026,81.1025,255.3130,104.0540,256.2489,0,U,13819,999,37140,.30116E-3,.16352E-3,0
SL-3 R/B,1983-075B,2026-06-05T21:29:54.388896,15.40284511,.0018777,97.6107,164.9407,273.3788,86.5309,0,U,14208,999,34372,.31843E-3,.12818E-3,0
COSMOS 1536,1984-013A,2026-06-05T03:42:38.783520,15.24924189,.0013591,82.5448,20.8287,341.5312,18.5430,0,U,14699,999,28594,.2436714E-3,.6112E-4,0
SL-14 R/B,1984-027B,2026-06-05T11:58:22.423296,14.86050776,.00190798,82.5407,162.6783,46.4159,313.8637,0,U,14820,999,26067,.50888486E-4,.471E-5,0
SL-8 R/B,1985-006B,2026-06-05T21:10:20.847072,14.37829919,.0018479,74.0451,98.8667,348.0865,67.4325,0,U,15483,999,16670,.11074E-3,.308E-5,0
