ATLAS CENTAUR 2         
1 00694U 63047A   26156.05527291  .00002376  00000+0  27865-3 0  9998
2 00694  30.3528  67.2380 0546080 130.5036 234.4465 14.12488877143982
THOR AGENA D R/B        
1 00733U 64002A   26156.50516762  .00000211  00000+0  92300-4 0  9998
2 00733  99.1158 174.6068 0032911   4.8526 355.2970 14.34060775250882
SL-3 R/B                
1 00877U 64053B   26156.83339545  .00000184  00000+0  59738-4 0  9998
2 00877  65.0772  72.8026 0081204 264.6491  94.5340 14.61421466279674
SL-8 R/B                
1 02802U 67045B   26156.46026394  .00000275  00000+0  83495-4 0  9994
2 02802  74.0096 184.1612 0063911 171.5067 188.7190 14.45677165101709
SL-8 R/B                
1 03230U 68040B   26156.67375942  .00003451  00000+0  25261-3 0  9990
2 03230  74.0294 133.8359 0025942 288.9276  70.9101 15.03755117103234
OAO 2                   
1 03597U 68110A   26156.60293358  .00000179  00000+0  53236-4 0  9995
2 03597  34.9920 134.3607 0005658 188.4167 171.6430 14.47347170 31842
ISIS 1                  
1 03669U 69009A   26156.24311322  .00000069  00000+0  51656-4 0  9997
2 03669  88.4418 145.7124 1705950 272.3696  68.3981 11.30432109358426
SERT 2                  
1 04327U 70009A   26156.84164028  .00000003  00000+0  60164-4 0  9998
2 04327  99.2838  95.1637 0004169 308.5934 114.6688 13.58738382791863
SL-3 R/B                
1 05118U 71028B   26156.89604147  .00061586  00000+0  53631-3 0  9998
2 05118  81.2333 302.4615 0013685 322.5828  37.4475 15.68659651  2476
ASTEX 1                 
1 05560U 71089A   26156.48533887  .00000416  00000+0  10570-3 0  9993
2 05560  92.7003 180.0871 0016987 141.1651 219.0779 14.50842398875036
SL-8 R/B                
1 05730U 71119B   26156.82857417  .00005553  00000+0  28539-3 0  9993
2 05730  73.8875  10.7533 0543819 319.0091  37.1347 14.39426649668167
OAO 3 (COPERNICUS)      
1 06153U 72065A   26156.69971775  .00000267  00000+0  58937-4 0  9996
2 06153  35.0040 155.8601 0006449 165.7873   1.4468 14.60053714859067
ATLAS CENTAUR R/B       
1 06155U 72065B   26156.65816993  .00001100  00000+0  15235-3 0  9994
2 06155  34.9999 150.1302 0033127  29.9599 330.2989 14.77896585854284
SL-8 R/B                
1 08459U 75112B   26156.49424307  .00000183  00000+0  68801-4 0  9993
2 08459  74.0604 217.3847 0016774 285.6775  74.2529 14.38240702644493
SL-3 R/B                
1 10114U 77057B   26156.90308735  .00015110  00000+0  29426-3 0  9991
2 10114  97.5842 332.8997 0006068 334.3301  25.7647 15.47641590681965
SEASAT 1                
1 10967U 78064A   26156.68844507  .00000332  00000+0  13109-3 0  9994
2 10967 108.0162 310.1521 0002142 241.4791 118.6139 14.46234160519233
SL-14 R/B               
1 11267U 79011B   26156.30496083  .00000553  00000+0  51888-4 0  9994
2 11267  82.5244  13.4314 0017323 121.9720 238.3187 14.92003103541845
SL-8 R/B                
1 11574U 79089B   26156.83043408  .00000273  00000+0  90258-4 0  9990
2 11574  74.0694 287.8803 0014821  76.2212 284.0593 14.42398829448818
SL-14 R/B               
1 11672U 80005B   26156.44275884  .00000513  00000+0  49303-4 0  9993
2 11672  82.5150 223.9800 0014521 226.7686 133.2322 14.91019072489566
SL-8 R/B                
1 12139U 81003B   26156.38781297  .00013600  00000+0  33704-3 0  9992
2 12139  82.9376 208.7324 0250560 232.5911 125.2284 15.13866804327930
SL-3 R/B                
1 12465U 81046B   26156.91348567  .00013724  00000+0  29865-3 0  9999
2 12465  81.2299 183.6474 0019388  74.7396 285.5989 15.43961901452038
SL-3 R/B                
1 12904U 81103B   26156.87935034  .00006320  00000+0  27366-3 0  9995
2 12904  81.1580 109.9163 0012656 356.3410   3.7727 15.22187860986641
SL-3 R/B                
1 13068U 82013B   26156.98611183  .00004573  00000+0  19396-3 0  9998
2 13068  81.1745  57.2040 0020746 240.1545 119.7625 15.22717131417782
SL-3 R/B                
1 13403U 82079B   26156.90164191  .00006129  00000+0  23786-3 0  9994
2 13403  81.1460  88.8341 0022841 224.5863 135.3534 15.25692813391146
SL-14 R/B               
1 13553U 82092B   26156.49683286  .00000510  00000+0  54363-4 0  9994
2 13553  82.5687  59.2413 0020695  14.3734 157.6936 14.86739214341979
SL-3 R/B                
1 13819U 83010B   26155.72139013  .00016352  00000+0  30116-3 0  9999
2 13819  81.1025 255.3130 0016026 104.0540 256.2489 15.48882753371401
SL-3 R/B                
1 14208U 83075B   26156.89576840  .00012818  00000+0  31843-3 0  9996
2 14208  97.6107 164.9407 0018777 273.3788  86.5309 15.40284511343727
COSMOS 1536             
1 14699U 84013A   26156.15461555  .00006112  00000+0  24367-3 0  9991
2 14699  82.5448  20.8287 0013591 341.5312  18.5430 15.24924189285941
SL-14 R/B               
1 14820U 84027B   26156.49887064  .00000471  00000+0  50888-4 0  9996
2 14820  82.5407 162.6783 0019079  46.4159 313.8637 14.86050776260677
SL-8 R/B                
1 15483U 85006B   26156.88218573  .00000308  00000+0  11074-3 0  9998
2 15483  74.0451  98.8667 0018479 348.0865  67.4325 14.37829919166701
